ATLAS CENTAUR 2         
1 00694U 63047A   25365.03690465  .00003227  00000+0  38218-3 0  9991
2 00694  30.3536 219.2469 0548635 195.3725 162.9580 14.11842717121918
THOR AGENA D R/B        
1 00733U 64002A   25365.00374483  .00000433  00000+0  17150-3 0  9991
2 00733  99.1218   9.6101 0033862  98.2291 262.2734 14.33971729228458
SL-3 R/B                
1 00877U 64053B   25364.84536913  .00000517  00000+0  12468-3 0  9995
2 00877  65.0757 173.0599 0075466 314.3292  45.1637 14.61291155256734
SL-8 R/B                
1 02802U 67045B   25365.06322453  .00000789  00000+0  22563-3 0  9994
2 02802  74.0116 116.2483 0063369 140.9680 219.6077 14.45558827 79101
SL-8 R/B                
1 03230U 68040B   25364.75015057  .00006140  00000+0  45963-3 0  9996
2 03230  74.0327  94.4987 0026344 293.2425  66.5989 15.02671976 79654
OAO 2                   
1 03597U 68110A   25365.13931225  .00000501  00000+0  14033-3 0  9996
2 03597  34.9941 287.9441 0005395   0.8458 359.2241 14.47257300  9163
ISIS 1                  
1 03669U 69009A   25364.94003498  .00000564  00000+0  40449-3 0  9993
2 03669  88.4500 162.8058 1707268 227.9190 116.3773 11.30365829340768
SERT 2                  
1 04327U 70009A   25365.13227845  .00000039  00000+0  10999-3 0  9997
2 04327  99.2675 307.0084 0004796 350.3226  20.1994 13.58720589770585
SL-3 R/B                
1 05118U 71028B   25365.07964197  .00051297  00000+0  73660-3 0  9995
2 05118  81.2373 136.4137 0018729 175.0589 185.0850 15.55687127977982
ASTEX 1                 
1 05560U 71089A   25365.05337774  .00001070  00000+0  27257-3 0  9991
2 05560  92.7152 129.5457 0014123 323.0926  36.9307 14.50668420852350
SL-8 R/B                
1 05730U 71119B   25365.07878597  .00015531  00000+0  80453-3 0  9993
2 05730  73.8893 303.8040 0557759 284.3867  69.6019 14.36199306645636
OAO 3 (COPERNICUS)      
1 06153U 72065A   25365.00479375  .00000818  00000+0  17246-3 0  9990
2 06153  35.0073 328.6197 0007027 314.3152 101.7280 14.59925990836151
