CCSDS_OMM_VERS = 2.0
CREATION_DATE  = 
ORIGINATOR     = 

OBJECT_NAME    = ATLAS CENTAUR 2
OBJECT_ID      = 1963-047A
CENTER_NAME    = EARTH
REF_FRAME      = TEME
TIME_SYSTEM    = UTC
MEAN_ELEMENT_THEORY = SGP/SGP4

EPOCH          = 2025-12-31T00:53:08.561760
MEAN_MOTION    = 14.11842717
ECCENTRICITY   = .0548635
INCLINATION    = 30.3536
RA_OF_ASC_NODE = 219.2469
ARG_OF_PERICENTER = 195.3725
MEAN_ANOMALY   = 162.9580

EPHEMERIS_TYPE = 0
CLASSIFICATION_TYPE = U
NORAD_CAT_ID   = 694
ELEMENT_SET_NO = 999
REV_AT_EPOCH   = 12191
BSTAR          = .38218E-3
MEAN_MOTION_DOT = .3227E-4
MEAN_MOTION_DDOT = 0

CCSDS_OMM_VERS = 2.0
CREATION_DATE  = 
ORIGINATOR     = 

OBJECT_NAME    = THOR AGENA D R/B
OBJECT_ID      = 1964-002A
CENTER_NAME    = EARTH
REF_FRAME      = TEME
TIME_SYSTEM    = UTC
MEAN_ELEMENT_THEORY = SGP/SGP4

EPOCH          = 2025-12-31T00:05:23.553312
MEAN_MOTION    = 14.33971729
ECCENTRICITY   = .0033862
INCLINATION    = 99.1218
RA_OF_ASC_NODE = 9.6101
ARG_OF_PERICENTER = 98.2291
MEAN_ANOMALY   = 262.2734

EPHEMERIS_TYPE = 0
CLASSIFICATION_TYPE = U
NORAD_CAT_ID   = 733
ELEMENT_SET_NO = 999
REV_AT_EPOCH   = 22845
BSTAR          = .1715E-3
MEAN_MOTION_DOT = .433E-5
MEAN_MOTION_DDOT = 0

CCSDS_OMM_VERS = 2.0
CREATION_DATE  = 
ORIGINATOR     = 

OBJECT_NAME    = SL-3 R/B
OBJECT_ID      = 1964-053B
CENTER_NAME    = EARTH
REF_FRAME      = TEME
TIME_SYSTEM    = UTC
MEAN_ELEMENT_THEORY = SGP/SGP4

EPOCH          = 2025-12-30T20:17:19.892832
MEAN_MOTION    = 14.61291155
ECCENTRICITY   = .0075466
INCLINATION    = 65.0757
RA_OF_ASC_NODE = 173.0599
ARG_OF_PERICENTER = 314.3292
MEAN_ANOMALY   = 45.1637

EPHEMERIS_TYPE = 0
CLASSIFICATION_TYPE = U
NORAD_CAT_ID   = 877
ELEMENT_SET_NO = 999
REV_AT_EPOCH   = 25673
BSTAR          = .12468E-3
MEAN_MOTION_DOT = .517E-5
MEAN_MOTION_DDOT = 0

CCSDS_OMM_VERS = 2.0
CREATION_DATE  = 
ORIGINATOR     = 

OBJECT_NAME    = SL-8 R/B
OBJECT_ID      = 1967-045B
CENTER_NAME    = EARTH
REF_FRAME      = TEME
TIME_SYSTEM    = UTC
MEAN_ELEMENT_THEORY = SGP/SGP4

EPOCH          = 2025-12-31T01:31:02.599392
MEAN_MOTION    = 14.45558827
ECCENTRICITY   = .0063369
INCLINATION    = 74.0116
RA_OF_ASC_NODE = 116.2483
ARG_OF_PERICENTER = 140.9680
MEAN_ANOMALY   = 219.6077

EPHEMERIS_TYPE = 0
CLASSIFICATION_TYPE = U
NORAD_CAT_ID   = 2802
ELEMENT_SET_NO = 999
REV_AT_EPOCH   = 7910
BSTAR          = .22563E-3
MEAN_MOTION_DOT = .789E-5
MEAN_MOTION_DDOT = 0

CCSDS_OMM_VERS = 2.0
CREATION_DATE  = 
ORIGINATOR     = 

OBJECT_NAME    = SL-8 R/B
OBJECT_ID      = 1968-040B
CENTER_NAME    = EARTH
REF_FRAME      = TEME
TIME_SYSTEM    = UTC
MEAN_ELEMENT_THEORY = SGP/SGP4

EPOCH          = 2025-12-30T18:00:13.009248
MEAN_MOTION    = 15.02671976
ECCENTRICITY   = .00263443
INCLINATION    = 74.0327
RA_OF_ASC_NODE = 94.4987
ARG_OF_PERICENTER = 293.2425
MEAN_ANOMALY   = 66.5989

EPHEMERIS_TYPE = 0
CLASSIFICATION_TYPE = U
NORAD_CAT_ID   = 3230
ELEMENT_SET_NO = 999
REV_AT_EPOCH   = 7965
BSTAR          = .45963392E-3
MEAN_MOTION_DOT = .614E-4
MEAN_MOTION_DDOT = 0

CCSDS_OMM_VERS = 2.0
CREATION_DATE  = 
ORIGINATOR     = 

OBJECT_NAME    = OAO 2
OBJECT_ID      = 1968-110A
CENTER_NAME    = EARTH
REF_FRAME      = TEME
TIME_SYSTEM    = UTC
MEAN_ELEMENT_THEORY = SGP/SGP4

EPOCH          = 2025-12-31T03:20:36.578400
MEAN_MOTION    = 14.47257300
ECCENTRICITY   = .0005395
INCLINATION    = 34.9941
RA_OF_ASC_NODE = 287.9441
ARG_OF_PERICENTER = 0.8458
MEAN_ANOMALY   = 359.2241

EPHEMERIS_TYPE = 0
CLASSIFICATION_TYPE = U
NORAD_CAT_ID   = 3597
ELEMENT_SET_NO = 999
REV_AT_EPOCH   = 916
BSTAR          = .14033E-3
MEAN_MOTION_DOT = .501E-5
MEAN_MOTION_DDOT = 0

CCSDS_OMM_VERS = 2.0
CREATION_DATE  = 
ORIGINATOR     = 

OBJECT_NAME    = ISIS 1
OBJECT_ID      = 1969-009A
CENTER_NAME    = EARTH
REF_FRAME      = TEME
TIME_SYSTEM    = UTC
MEAN_ELEMENT_THEORY = SGP/SGP4

EPOCH          = 2025-12-30T22:33:39.022272
MEAN_MOTION    = 11.30365829
ECCENTRICITY   = .1707268
INCLINATION    = 88.4500
RA_OF_ASC_NODE = 162.8058
ARG_OF_PERICENTER = 227.9190
MEAN_ANOMALY   = 116.3773

EPHEMERIS_TYPE = 0
CLASSIFICATION_TYPE = U
NORAD_CAT_ID   = 3669
ELEMENT_SET_NO = 999
REV_AT_EPOCH   = 34076
BSTAR          = .40449E-3
MEAN_MOTION_DOT = .564E-5
MEAN_MOTION_DDOT = 0

CCSDS_OMM_VERS = 2.0
CREATION_DATE  = 
ORIGINATOR     = 

OBJECT_NAME    = SERT 2
OBJECT_ID      = 1970-009A
CENTER_NAME    = EARTH
REF_FRAME      = TEME
TIME_SYSTEM    = UTC
MEAN_ELEMENT_THEORY = SGP/SGP4

EPOCH          = 2025-12-31T03:10:28.858080
MEAN_MOTION    = 13.58720589
ECCENTRICITY   = .0004796
INCLINATION    = 99.2675
RA_OF_ASC_NODE = 307.0084
ARG_OF_PERICENTER = 350.3226
MEAN_ANOMALY   = 20.1994

EPHEMERIS_TYPE = 0
CLASSIFICATION_TYPE = U
NORAD_CAT_ID   = 4327
ELEMENT_SET_NO = 999
REV_AT_EPOCH   = 77058
BSTAR          = .10999E-3
MEAN_MOTION_DOT = .39E-6
MEAN_MOTION_DDOT = 0

CCSDS_OMM_VERS = 2.0
CREATION_DATE  = 
ORIGINATOR     = 

OBJECT_NAME    = SL-3 R/B
OBJECT_ID      = 1971-028B
CENTER_NAME    = EARTH
REF_FRAME      = TEME
TIME_SYSTEM    = UTC
MEAN_ELEMENT_THEORY = SGP/SGP4

EPOCH          = 2025-12-31T01:54:41.066208
MEAN_MOTION    = 15.55687127
ECCENTRICITY   = .0018729
INCLINATION    = 81.2373
RA_OF_ASC_NODE = 136.4137
ARG_OF_PERICENTER = 175.0589
MEAN_ANOMALY   = 185.0850

EPHEMERIS_TYPE = 0
CLASSIFICATION_TYPE = U
NORAD_CAT_ID   = 5118
ELEMENT_SET_NO = 999
REV_AT_EPOCH   = 97798
BSTAR          = .7366E-3
MEAN_MOTION_DOT = .51297E-3
MEAN_MOTION_DDOT = 0

CCSDS_OMM_VERS = 2.0
CREATION_DATE  = 
ORIGINATOR     = 

OBJECT_NAME    = ASTEX 1
OBJECT_ID      = 1971-089A
CENTER_NAME    = EARTH
REF_FRAME      = TEME
TIME_SYSTEM    = UTC
MEAN_ELEMENT_THEORY = SGP/SGP4

EPOCH          = 2025-12-31T01:16:51.836736
MEAN_MOTION    = 14.50668420
ECCENTRICITY   = .0014123
INCLINATION    = 92.7152
RA_OF_ASC_NODE = 129.5457
ARG_OF_PERICENTER = 323.0926
MEAN_ANOMALY   = 36.9307

EPHEMERIS_TYPE = 0
CLASSIFICATION_TYPE = U
NORAD_CAT_ID   = 5560
ELEMENT_SET_NO = 999
REV_AT_EPOCH   = 85235
BSTAR          = .27257E-3
MEAN_MOTION_DOT = .107E-4
MEAN_MOTION_DDOT = 0

CCSDS_OMM_VERS = 2.0
CREATION_DATE  = 
ORIGINATOR     = 

OBJECT_NAME    = SL-8 R/B
OBJECT_ID      = 1971-119B
CENTER_NAME    = EARTH
REF_FRAME      = TEME
TIME_SYSTEM    = UTC
MEAN_ELEMENT_THEORY = SGP/SGP4

EPOCH          = 2025-12-31T01:53:27.107808
MEAN_MOTION    = 14.36199306
ECCENTRICITY   = .0557759
INCLINATION    = 73.8893
RA_OF_ASC_NODE = 303.8040
ARG_OF_PERICENTER = 284.3867
MEAN_ANOMALY   = 69.6019

EPHEMERIS_TYPE = 0
CLASSIFICATION_TYPE = U
NORAD_CAT_ID   = 5730
ELEMENT_SET_NO = 999
REV_AT_EPOCH   = 64563
BSTAR          = .80453E-3
MEAN_MOTION_DOT = .15531E-3
MEAN_MOTION_DDOT = 0

CCSDS_OMM_VERS = 2.0
CREATION_DATE  = 
ORIGINATOR     = 

OBJECT_NAME    = OAO 3 (COPERNICUS)
OBJECT_ID      = 1972-065A
CENTER_NAME    = EARTH
REF_FRAME      = TEME
TIME_SYSTEM    = UTC
MEAN_ELEMENT_THEORY = SGP/SGP4

EPOCH          = 2025-12-31T00:06:54.180000
MEAN_MOTION    = 14.59925990
ECCENTRICITY   = .0007027
INCLINATION    = 35.0073
RA_OF_ASC_NODE = 328.6197
ARG_OF_PERICENTER = 314.3152
MEAN_ANOMALY   = 101.7280

EPHEMERIS_TYPE = 0
CLASSIFICATION_TYPE = U
NORAD_CAT_ID   = 6153
ELEMENT_SET_NO = 999
REV_AT_EPOCH   = 83615
BSTAR          = .17246E-3
MEAN_MOTION_DOT = .818E-5
MEAN_MOTION_DDOT = 0

